SEEDS II (CO-66)        
1 32791U 08021J   26068.92109284  .00023758  00000+0  84213-3 0  9995
2 32791  97.7519  62.3611 0001448 359.2618   0.8619 15.29097235972108
STARLINK-31532          
1 59349U 24060B   26068.82593454 -.00002790  00000+0 -91837-4 0  9995
2 59349  43.0036 259.0920 0001628 274.1104  85.9562 15.27594636110130
